GLOBALSTAR M067         
1 32263U 07048A   24226.24727735 -.00000044  00000+0  39614-3 0  9992
2 32263  51.9700 216.9765 0000960  45.6436 328.6286 12.40652104771509
GLOBALSTAR M070         
1 32264U 07048B   24226.58442924 -.00000062  00000+0  23467-3 0  9993
2 32264  51.9777 345.5732 0000988 117.8262 254.9039 12.62297248775808
GLOBALSTAR M066         
1 32265U 07048C   24226.50308148 -.00000055  00000+0  28023-3 0  9990
2 32265  51.9650 208.3643 0001363 252.8118 258.1668 12.58439605777068
GLOBALSTAR M068         
1 32266U 07048D   24226.59925649 -.00000055  00000+0  27298-3 0  9994
2 32266  51.9878 159.8680 0000629 153.1580  18.7318 12.62796455778980
GLOBALSTAR M079         
1 37188U 10054A   24226.55540924 -.00000084  00000+0  10921-3 0  9995
2 37188  52.0066 356.2673 0000641  82.4209  16.7385 12.62262421637606
GLOBALSTAR M074         
1 37189U 10054B   24226.58324917 -.00000092  00000+0  67226-4 0  9991
2 37189  52.0043 355.5522 0000766 102.3583   3.4247 12.62271075638215
GLOBALSTAR M076         
1 37190U 10054C   24226.35485934 -.00000080  00000+0  13100-3 0  9993
2 37190  52.0055 356.3927 0001026  78.4251 307.6988 12.62255083637900
GLOBALSTAR M077         
1 37191U 10054D   24226.49690694 -.00000068  00000+0  20196-3 0  9999
2 37191  52.0089 312.7289 0000631 116.3898 256.4175 12.62262336638296
